{
    "links": {
        "self": "http://www.neowsapp.com/rest/v1/neo/3160793?api_key=iIulBulltgU6a56xZRHN4H3l9WmuAYTsLGpBGhQ2"
    },
    "id": "3160793",
    "neo_reference_id": "3160793",
    "name": "(2003 SK215)",
    "designation": "2003 SK215",
    "nasa_jpl_url": "http://ssd.jpl.nasa.gov/sbdb.cgi?sstr=3160793",
    "absolute_magnitude_h": 21.5,
    "estimated_diameter": {
        "kilometers": {
            "estimated_diameter_min": 0.1332155667,
            "estimated_diameter_max": 0.2978790628
        },
        "meters": {
            "estimated_diameter_min": 133.2155666981,
            "estimated_diameter_max": 297.8790627982
        },
        "miles": {
            "estimated_diameter_min": 0.0827762899,
            "estimated_diameter_max": 0.1850934111
        },
        "feet": {
            "estimated_diameter_min": 437.0589598459,
            "estimated_diameter_max": 977.2935443908
        }
    },
    "is_potentially_hazardous_asteroid": false,
    "close_approach_data": [
        {
            "close_approach_date": "1998-09-13",
            "close_approach_date_full": "1998-Sep-13 16:03",
            "epoch_date_close_approach": 905702580000,
            "relative_velocity": {
                "kilometers_per_second": "18.4837352647",
                "kilometers_per_hour": "66541.4469528836",
                "miles_per_hour": "41346.2674135848"
            },
            "miss_distance": {
                "astronomical": "0.3388146403",
                "lunar": "131.7988950767",
                "kilometers": "50685948.513696161",
                "miles": "31494787.9736865818"
            },
            "orbiting_body": "Earth"
        },
        {
            "close_approach_date": "2003-09-16",
            "close_approach_date_full": "2003-Sep-16 14:53",
            "epoch_date_close_approach": 1063723980000,
            "relative_velocity": {
                "kilometers_per_second": "20.5881526094",
                "kilometers_per_hour": "74117.349393777",
                "miles_per_hour": "46053.6385719277"
            },
            "miss_distance": {
                "astronomical": "0.2413646709",
                "lunar": "93.8908569801",
                "kilometers": "36107640.659890983",
                "miles": "22436247.5234342454"
            },
            "orbiting_body": "Earth"
        },
        {
            "close_approach_date": "2008-09-21",
            "close_approach_date_full": "2008-Sep-21 01:34",
            "epoch_date_close_approach": 1221960840000,
            "relative_velocity": {
                "kilometers_per_second": "24.0118098471",
                "kilometers_per_hour": "86442.515449664",
                "miles_per_hour": "53712.0174470426"
            },
            "miss_distance": {
                "astronomical": "0.3293195786",
                "lunar": "128.1053160754",
                "kilometers": "49265507.507857582",
                "miles": "30612166.8603433516"
            },
            "orbiting_body": "Earth"
        }
    ],
    "orbital_data": {
        "orbit_id": "11",
        "orbit_determination_date": "2017-04-06 09:13:46",
        "first_observation_date": "2003-09-28",
        "last_observation_date": "2003-10-30",
        "data_arc_in_days": 32,
        "observations_used": 26,
        "orbit_uncertainty": "6",
        "minimum_orbit_intersection": ".242256",
        "jupiter_tisserand_invariant": "3.673",
        "epoch_osculation": "2459000.5",
        "eccentricity": ".4461683973018803",
        "semi_major_axis": "1.851893769688492",
        "inclination": "36.01896180887836",
        "ascending_node_longitude": "2.757141749928205",
        "orbital_period": "920.4973292344526",
        "perihelion_distance": "1.02563729449324",
        "perihelion_argument": "288.9845960640996",
        "aphelion_distance": "2.678150244883744",
        "perihelion_time": "2459282.434363908429",
        "mean_anomaly": "249.7374628001954",
        "mean_motion": ".3910929326643459",
        "equinox": "J2000",
        "orbit_class": {
            "orbit_class_type": "AMO",
            "orbit_class_description": "Near-Earth asteroid orbits similar to that of 1221 Amor",
            "orbit_class_range": "1.017 AU < q (perihelion) < 1.3 AU"
        }
    },
    "is_sentry_object": false
}